ONEWEB-0520             
1 54138U 22138AB  24185.76963165 -.00000244  00000+0 -64295-3 0  9990
2 54138  87.9146  86.9284 0002417  70.8373 289.3021 13.19724835 82724
ONEWEB-0521             
1 54139U 22138AC  24185.95443320 -.00000100  00000+0 -28336-3 0  9995
2 54139  87.9144  86.8843 0001902  85.2677 274.8673 13.19724898 82695
ONEWEB-0522             
1 54140U 22138AD  24185.78226370 -.00000081  00000+0 -23534-3 0  9995
2 54140  87.9144  86.9204 0001980  73.8660 286.2690 13.19726918 82714
ONEWEB-0523             
1 54141U 22138AE  24185.93180583  .00000007  00000+0 -13989-4 0  9999
2 54141  87.9202  56.3454 0001088 103.0699 257.0556 13.20770695 85156
ONEWEB-0524             
1 54142U 22138AF  24185.92074991 -.00000271  00000+0 -69723-3 0  9994
2 54142  87.9201  56.3509 0001142  43.7408 316.3815 13.20771704 85155
ONEWEB-0525             
1 54143U 22138AG  24185.95285873  .00000017  00000+0  10287-4 0  9999
2 54143  87.9147  86.8957 0002246  73.7661 286.3719 13.19723930 82758
